{
  "type": "FeatureCollection",
  "features": [
    {
      "type": "Feature",
      "properties": {
        "norad_id": 44334,
        "name": "EUTELSAT 7C",
        "group": "eutelsat",
        "lat": 0.0025330486356195145,
        "lon": -163.2012342795782,
        "alt_km": 35779.692447259935,
        "timestamp": "2025-12-15T07:02:37.285865+00:00",
        "meta_object_name": "EUTELSAT 7C",
        "meta_object_id": "2019-034B",
        "meta_epoch": "2025-12-14T22:09:38.644416",
        "meta_mean_motion": 1.00269677,
        "meta_eccentricity": 0.00030404,
        "meta_inclination": 0.0727,
        "meta_ra_of_asc_node": 177.7065,
        "meta_arg_of_pericenter": 76.376,
        "meta_mean_anomaly": 169.15,
        "meta_ephemeris_type": 0,
        "meta_classification_type": "U",
        "meta_norad_cat_id": 44334,
        "meta_element_set_no": 999,
        "meta_rev_at_epoch": 498,
        "meta_bstar": 0,
        "meta_mean_motion_dot": 6.8e-07,
        "meta_mean_motion_ddot": 0,
        "tle_line1": "1 44334U 19034B   25348.92336394  .00000068  00000+0  00000+0 0  9998",
        "tle_line2": "2 44334   0.0727 177.7065 0003040  76.3760 169.1500  1.00269677  4986"
      },
      "geometry": {
        "type": "Point",
        "coordinates": [
          -163.2012342795782,
          0.0025330486356195145
        ]
      }
    },
    {
      "type": "Feature",
      "properties": {
        "norad_id": 44624,
        "name": "EUTELSAT 5 WEST B",
        "group": "eutelsat",
        "lat": -0.040100701047477795,
        "lon": -175.18955930618918,
        "alt_km": 35783.41902063502,
        "timestamp": "2025-12-15T07:02:37.285878+00:00",
        "meta_object_name": "EUTELSAT 5 WEST B",
        "meta_object_id": "2019-067A",
        "meta_epoch": "2025-12-14T21:57:19.642752",
        "meta_mean_motion": 1.00272512,
        "meta_eccentricity": 0.0003227,
        "meta_inclination": 0.0651,
        "meta_ra_of_asc_node": 338.3531,
        "meta_arg_of_pericenter": 286.172,
        "meta_mean_anomaly": 143.635,
        "meta_ephemeris_type": 0,
        "meta_classification_type": "U",
        "meta_norad_cat_id": 44624,
        "meta_element_set_no": 999,
        "meta_rev_at_epoch": 2258,
        "meta_bstar": 0,
        "meta_mean_motion_dot": -2.2e-07,
        "meta_mean_motion_ddot": 0,
        "tle_line1": "1 44624U 19067A   25348.91481068 -.00000022  00000+0  00000+0 0  9995",
        "tle_line2": "2 44624   0.0651 338.3531 0003227 286.1720 143.6350  1.00272512 22589"
      },
      "geometry": {
        "type": "Point",
        "coordinates": [
          -175.18955930618918,
          -0.040100701047477795
        ]
      }
    },
    {
      "type": "Feature",
      "properties": {
        "norad_id": 45027,
        "name": "EUTELSAT KONNECT",
        "group": "eutelsat",
        "lat": 0.04837130466472729,
        "lon": -162.96880523644194,
        "alt_km": 35786.16588312104,
        "timestamp": "2025-12-15T07:02:37.285894+00:00",
        "meta_object_name": "EUTELSAT KONNECT",
        "meta_object_id": "2020-005B",
        "meta_epoch": "2025-12-14T22:09:38.644416",
        "meta_mean_motion": 1.00270412,
        "meta_eccentricity": 0.00013798,
        "meta_inclination": 0.0689,
        "meta_ra_of_asc_node": 97.0376,
        "meta_arg_of_pericenter": 187.5584,
        "meta_mean_anomaly": 138.8542,
        "meta_ephemeris_type": 0,
        "meta_classification_type": "U",
        "meta_norad_cat_id": 45027,
        "meta_element_set_no": 999,
        "meta_rev_at_epoch": 2248,
        "meta_bstar": 0,
        "meta_mean_motion_dot": 6.9e-07,
        "meta_mean_motion_ddot": 0,
        "tle_line1": "1 45027U 20005B   25348.92336394  .00000069  00000+0  00000+0 0  9999",
        "tle_line2": "2 45027   0.0689  97.0376 0001379 187.5584 138.8542  1.00270412 22487"
      },
      "geometry": {
        "type": "Point",
        "coordinates": [
          -162.96880523644194,
          0.04837130466472729
        ]
      }
    },
    {
      "type": "Feature",
      "properties": {
        "norad_id": 49056,
        "name": "EUTELSAT QUANTUM",
        "group": "eutelsat",
        "lat": -0.030559254795587465,
        "lon": -122.46595386011042,
        "alt_km": 35773.26304643807,
        "timestamp": "2025-12-15T07:02:37.285906+00:00",
        "meta_object_name": "EUTELSAT QUANTUM",
        "meta_object_id": "2021-069B",
        "meta_epoch": "2025-12-14T22:12:18.208800",
        "meta_mean_motion": 1.00274118,
        "meta_eccentricity": 0.00036438,
        "meta_inclination": 0.0107,
        "meta_ra_of_asc_node": 353.0014,
        "meta_arg_of_pericenter": 282.8168,
        "meta_mean_anomaly": 188.8068,
        "meta_ephemeris_type": 0,
        "meta_classification_type": "U",
        "meta_norad_cat_id": 49056,
        "meta_element_set_no": 999,
        "meta_rev_at_epoch": 1608,
        "meta_bstar": 0,
        "meta_mean_motion_dot": 1.46e-06,
        "meta_mean_motion_ddot": 0,
        "tle_line1": "1 49056U 21069B   25348.92521075  .00000146  00000+0  00000+0 0  9994",
        "tle_line2": "2 49056   0.0107 353.0014 0003643 282.8168 188.8068  1.00274118 16089"
      },
      "geometry": {
        "type": "Point",
        "coordinates": [
          -122.46595386011042,
          -0.030559254795587465
        ]
      }
    },
    {
      "type": "Feature",
      "properties": {
        "norad_id": 53765,
        "name": "EUTELSAT KONNECT VHTS",
        "group": "eutelsat",
        "lat": 0.047187333232989986,
        "lon": -167.44964898089555,
        "alt_km": 35779.94633782639,
        "timestamp": "2025-12-15T07:02:37.285917+00:00",
        "meta_object_name": "EUTELSAT KONNECT VHTS",
        "meta_object_id": "2022-110A",
        "meta_epoch": "2025-12-14T21:55:51.894048",
        "meta_mean_motion": 1.0027074,
        "meta_eccentricity": 0.00023429,
        "meta_inclination": 0.0653,
        "meta_ra_of_asc_node": 101.3375,
        "meta_arg_of_pericenter": 140.8522,
        "meta_mean_anomaly": 173.3298,
        "meta_ephemeris_type": 0,
        "meta_classification_type": "U",
        "meta_norad_cat_id": 53765,
        "meta_element_set_no": 999,
        "meta_rev_at_epoch": 497,
        "meta_bstar": 0,
        "meta_mean_motion_dot": 3.7e-07,
        "meta_mean_motion_ddot": 0,
        "tle_line1": "1 53765U 22110A   25348.91379507  .00000037  00000+0  00000+0 0  9993",
        "tle_line2": "2 53765   0.0653 101.3375 0002342 140.8522 173.3298  1.00270740  4979"
      },
      "geometry": {
        "type": "Point",
        "coordinates": [
          -167.44964898089555,
          0.047187333232989986
        ]
      }
    },
    {
      "type": "Feature",
      "properties": {
        "norad_id": 54048,
        "name": "EUTELSAT HOTBIRD 13F",
        "group": "eutelsat",
        "lat": -0.06439084345880851,
        "lon": -157.17148223793032,
        "alt_km": 35795.3645368043,
        "timestamp": "2025-12-15T07:02:37.285929+00:00",
        "meta_object_name": "EUTELSAT HOTBIRD 13F",
        "meta_object_id": "2022-134A",
        "meta_epoch": "2025-12-14T22:02:26.653056",
        "meta_mean_motion": 1.0027139,
        "meta_eccentricity": 0.00023413,
        "meta_inclination": 0.0492,
        "meta_ra_of_asc_node": 293.4772,
        "meta_arg_of_pericenter": 68.5165,
        "meta_mean_anomaly": 65.4415,
        "meta_ephemeris_type": 0,
        "meta_classification_type": "U",
        "meta_norad_cat_id": 54048,
        "meta_element_set_no": 999,
        "meta_rev_at_epoch": 1152,
        "meta_bstar": 0,
        "meta_mean_motion_dot": 1.07e-06,
        "meta_mean_motion_ddot": 0,
        "tle_line1": "1 54048U 22134A   25348.91836404  .00000107  00000+0  00000+0 0  9996",
        "tle_line2": "2 54048   0.0492 293.4772 0002341  68.5165  65.4415  1.00271390 11520"
      },
      "geometry": {
        "type": "Point",
        "coordinates": [
          -157.17148223793032,
          -0.06439084345880851
        ]
      }
    },
    {
      "type": "Feature",
      "properties": {
        "norad_id": 54225,
        "name": "EUTELSAT HOTBIRD 13G",
        "group": "eutelsat",
        "lat": -0.03894828869378687,
        "lon": -157.15546601266783,
        "alt_km": 35779.27530609548,
        "timestamp": "2025-12-15T07:02:37.285941+00:00",
        "meta_object_name": "EUTELSAT HOTBIRD 13G",
        "meta_object_id": "2022-146A",
        "meta_epoch": "2025-12-14T22:02:26.653056",
        "meta_mean_motion": 1.00272208,
        "meta_eccentricity": 0.00017635,
        "meta_inclination": 0.0483,
        "meta_ra_of_asc_node": 235.8352,
        "meta_arg_of_pericenter": 301.0264,
        "meta_mean_anomaly": 250.5702,
        "meta_ephemeris_type": 0,
        "meta_classification_type": "U",
        "meta_norad_cat_id": 54225,
        "meta_element_set_no": 999,
        "meta_rev_at_epoch": 561,
        "meta_bstar": 0,
        "meta_mean_motion_dot": 1.07e-06,
        "meta_mean_motion_ddot": 0,
        "tle_line1": "1 54225U 22146A   25348.91836404  .00000107  00000+0  00000+0 0  9996",
        "tle_line2": "2 54225   0.0483 235.8352 0001763 301.0264 250.5702  1.00272208  5611"
      },
      "geometry": {
        "type": "Point",
        "coordinates": [
          -157.15546601266783,
          -0.03894828869378687
        ]
      }
    }
  ]
}